ONEWEB-0018             
1 45434U 20020L   25286.85564127  .00000627  00000+0  17345-2 0  9991
2 45434  87.8820  70.1191 0001575  96.6049 263.5259 13.11417251270340
ONEWEB-0083             
1 45435U 20020M   25286.84631935  .00000538  00000+0  14824-2 0  9993
2 45435  87.8818  70.1103 0001634  97.5889 262.5425 13.11417192270381
ONEWEB-0095             
1 45436U 20020N   25286.68453716  .00000294  00000+0  79252-3 0  9991
2 45436  87.8814  70.1589 0002199  79.4675 280.6700 13.11418769270361
ONEWEB-0092             
1 45437U 20020P   25286.80899337 -.00000310  00000+0 -90961-3 0  9990
2 45437  87.8818  70.1284 0001774  88.1982 271.9349 13.11415197270492
ONEWEB-0085             
1 45438U 20020Q   25286.84546189  .00000553  00000+0  15256-2 0  9999
2 45438  87.8811  70.1331 0001640  94.3003 265.8313 13.11418919270380
ONEWEB-0096             
1 45439U 20020R   25286.84716553  .00000505  00000+0  13899-2 0  9992
2 45439  87.8825  70.1069 0001488  97.6653 262.4644 13.11417950270374
ONEWEB-0037             
1 45440U 20020S   25286.67504775 -.00000328  00000+0 -96132-3 0  9993
2 45440  87.8832  70.1071 0001671  91.7767 268.3553 13.11418382270387
ONEWEB-0042             
1 45441U 20020T   25286.68425524  .00000292  00000+0  78689-3 0  9994
2 45441  87.8822  70.1418 0001562  90.7243 269.4064 13.11418790270358
